ORBCOMM FM05            
1 25117U 97084F   24149.40307081  .00002010  00000+0  63904-3 0  9994
2 25117  45.0156  51.1989 0002633  76.2291 283.8852 14.42844279385910
ORBCOMM FM06            
1 25118U 97084G   24149.46339381  .00002133  00000+0  67497-3 0  9996
2 25118  45.0152  51.0689 0001713  87.1359  83.6693 14.42900088385928
ORBCOMM FM07            
1 25119U 97084H   24149.00738522  .00001799  00000+0  57707-3 0  9997
2 25119  45.0149  53.7942 0003338  67.4570 292.6634 14.42811504385849
ORBCOMM FM03            
1 25158U 98007B   24148.70150809  .00001310  00000+0  52707-3 0  9992
2 25158 107.9715  64.9301 0047235 203.6918 156.2045 14.32254455368809
ORBCOMM FM04            
1 25159U 98007C   24148.75679689  .00001342  00000+0  53740-3 0  9993
2 25159 107.9698  67.9909 0042718 201.5395 158.3947 14.32521072368989
ORBCOMM FM17            
1 25413U 98046A   24149.47634128  .00000962  00000+0  39751-3 0  9991
2 25413  44.9944 270.6760 0001407 139.6516 220.4435 14.33241448348113
ORBCOMM FM18            
1 25414U 98046B   24149.43596863  .00001138  00000+0  43613-3 0  9999
2 25414  44.9916 197.5767 0003394 179.3622 180.7230 14.36023665349061
ORBCOMM FM19            
1 25415U 98046C   24149.40691993  .00001235  00000+0  47061-3 0  9996
2 25415  44.9926 199.1496 0002215 185.1855 189.1617 14.35860948349057
